[{"OBJECT_NAME":"STARLINK-6250","OBJECT_ID":"2023-094N","EPOCH":"2026-03-09T22:00:01.999584","MEAN_MOTION":15.13757953,"ECCENTRICITY":7.742e-5,"INCLINATION":43.0004,"RA_OF_ASC_NODE":28.5902,"ARG_OF_PERICENTER":238.6118,"MEAN_ANOMALY":352.2453,"EPHEMERIS_TYPE":0,"CLASSIFICATION_TYPE":"U","NORAD_CAT_ID":57230,"ELEMENT_SET_NO":999,"REV_AT_EPOCH":558,"BSTAR":0.0042340714,"MEAN_MOTION_DOT":0.00078344,"MEAN_MOTION_DDOT":0},{"OBJECT_NAME":"LEMUR-2-ESPERANZA","OBJECT_ID":"2025-061B","EPOCH":"2026-03-09T20:59:51.017856","MEAN_MOTION":15.12770808,"ECCENTRICITY":0.00169494,"INCLINATION":97.5568,"RA_OF_ASC_NODE":45.1407,"ARG_OF_PERICENTER":244.877,"MEAN_ANOMALY":115.0702,"EPHEMERIS_TYPE":0,"CLASSIFICATION_TYPE":"U","NORAD_CAT_ID":63352,"ELEMENT_SET_NO":999,"REV_AT_EPOCH":5257,"BSTAR":0.00034972806,"MEAN_MOTION_DOT":6.09e-5,"MEAN_MOTION_DDOT":0}]
